NORAD_CAT_ID,OBJECT_NAME,OBJECT_TYPE,EPOCH,MEAN_MOTION,ECCENTRICITY,INCLINATION,RA_OF_ASC_NODE,ARG_OF_PERICENTER,MEAN_ANOMALY,BSTAR,MEAN_MOTION_DOT,MEAN_MOTION_DDOT,TLE_LINE0,TLE_LINE1,TLE_LINE2,SEMIMAJOR_AXIS,PERIOD,APOGEE,PERIGEE,DECAYED
53934.0,STARLINK-4775,PAYLOAD,2024-05-10 02:56:12,15.08840294,0.000144,53.2185,60.4835,78.2,281.9154,0.00012886,1.763e-05,0.0,0 STARLINK-4775,1 53934U 22119BA  24131.12236903  .00001763  00000-0  12886-3 0  9991,2 53934  53.2185  60.4835 0001440  78.2000 281.9154 15.08840294 90686,6917.879,95.438,540.741,538.748,0.0
53934.0,STARLINK-4775,PAYLOAD,2024-05-10 12:28:31,15.08854946,0.0001448,53.2194,58.7025,87.1955,272.9203,0.00040569,6.177e-05,0.0,0 STARLINK-4775,1 53934U 22119BA  24131.51980352  .00006177  00000-0  40569-3 0  9991,2 53934  53.2194  58.7025 0001448  87.1955 272.9203 15.08854946 90744,6917.835,95.437,540.701,538.698,0.0
53934.0,STARLINK-4775,PAYLOAD,2024-05-10 18:50:04,15.08836299,0.0001479,53.2203,57.5109,92.0056,268.1105,1.8419e-05,5e-08,0.0,0 STARLINK-4775,1 53934U 22119BA  24131.78476946  .00000005  00000-0  18419-4 0  9993,2 53934  53.2203  57.5109 0001479  92.0056 268.1105 15.08836299 90789,6917.892,95.438,540.78,538.734,0.0
53934.0,STARLINK-4775,PAYLOAD,2024-05-11 01:11:36,15.0886157,0.0001607,53.218,56.3208,88.4168,271.7009,0.00093174,0.0001458,0.0,0 STARLINK-4775,1 53934U 22119BA  24132.04972496  .00014580  00000-0  93174-3 0  9997,2 53934  53.2180  56.3208 0001607  88.4168 271.7009 15.08861570 90824,6917.814,95.436,540.791,538.568,0.0
53934.0,STARLINK-4775,PAYLOAD,2024-05-11 12:19:14,15.08950863,0.0001312,53.2183,54.2416,66.1067,294.0063,0.0027591,0.00044031,0.0,0 STARLINK-4775,1 53934U 22119BA  24132.51336271  .00044031  00000-0  27591-2 0  9997,2 53934  53.2183  54.2416 0001312  66.1067 294.0063 15.08950863 90898,6917.542,95.431,540.314,538.499,0.0
53934.0,STARLINK-4775,PAYLOAD,2024-05-12 02:37:44,15.08791498,0.0001595,53.2182,51.5638,132.6315,227.4811,-0.0019456,-0.00031078,0.0,0 STARLINK-4775,1 53934U 22119BA  24133.10954618 -.00031078  00000-0 -19456-2 0  9994,2 53934  53.2182  51.5638 0001595 132.6315 227.4811 15.08791498 90989,6918.029,95.441,540.997,538.79,0.0
53934.0,STARLINK-4775,PAYLOAD,2024-05-12 12:10:05,15.08783138,0.000147,53.2175,49.7833,61.7701,298.3439,-0.00079489,-0.00012897,0.0,0 STARLINK-4775,1 53934U 22119BA  24133.50701056 -.00012897  00000-0 -79489-3 0  9995,2 53934  53.2175  49.7833 0001470  61.7701 298.3439 15.08783138 91481,6918.054,95.441,540.936,538.902,0.0
53934.0,STARLINK-4775,PAYLOAD,2024-05-12 21:42:26,15.08764795,0.0001494,53.2167,47.9985,65.2768,294.838,0.00029157,4.346e-05,0.0,0 STARLINK-4775,1 53934U 22119BA  24133.90447574  .00004346  00000-0  29157-3 0  9996,2 53934  53.2167  47.9985 0001494  65.2768 294.8380 15.08764795 91549,6918.11,95.442,541.009,538.942,0.0
53934.0,STARLINK-4775,PAYLOAD,2024-05-13 04:03:57,15.08863928,0.0001669,53.2185,46.8059,115.7613,244.3551,0.0036182,0.00057806,0.0,0 STARLINK-4775,1 53934U 22119BA  24134.16942022  .00057806  00000-0  36182-2 0  9997,2 53934  53.2185  46.8059 0001669 115.7613 244.3551 15.08863928 91147,6917.807,95.436,540.827,538.518,0.0
53934.0,STARLINK-4775,PAYLOAD,2024-05-14 03:54:43,15.08842395,0.0001445,53.2176,42.3492,78.9736,281.1419,0.00012832,1.755e-05,0.0,0 STARLINK-4775,1 53934U 22119BA  24135.16300196  .00001755  00000-0  12832-3 0  9997,2 53934  53.2176  42.3492 0001445  78.9736 281.1419 15.08842395 91290,6917.873,95.437,540.738,538.738,0.0
53934.0,STARLINK-4775,PAYLOAD,2024-05-14 10:16:15,15.0884516,0.0001506,53.2176,41.1594,77.5824,282.5337,-4.2031e-05,-9.57e-06,0.0,0 STARLINK-4775,1 53934U 22119BA  24135.42795922 -.00000957  00000-0 -42031-4 0  9991,2 53934  53.2176  41.1594 0001506  77.5824 282.5337 15.08845160 91771,6917.865,95.437,540.771,538.688,0.0
53934.0,STARLINK-4775,PAYLOAD,2024-05-14 22:59:21,15.08825741,0.0001255,53.2186,38.78,95.4966,264.617,-0.00060854,-9.956e-05,0.0,0 STARLINK-4775,1 53934U 22119BA  24135.95788668 -.00009956  00000-0 -60854-3 0  9998,2 53934  53.2186  38.7800 0001255  95.4966 264.6170 15.08825741 91859,6917.924,95.438,540.657,538.921,0.0
53934.0,STARLINK-4775,PAYLOAD,2024-05-15 00:34:44,15.088279,0.000139,53.2189,38.4842,87.1271,272.988,-0.00054646,-8.971e-05,0.0,0 STARLINK-4775,1 53934U 22119BA  24136.02412648 -.00008971  00000-0 -54646-3 0  9997,2 53934  53.2189  38.4842 0001390  87.1271 272.9880 15.08827900 91424,6917.917,95.438,540.744,538.821,0.0
53934.0,STARLINK-4775,PAYLOAD,2024-05-15 10:07:03,15.08837165,0.0001438,53.2199,36.699,90.0718,270.0439,6.2846e-05,7.12e-06,0.0,0 STARLINK-4775,1 53934U 22119BA  24136.42156698  .00000712  00000-0  62846-4 0  9996,2 53934  53.2199  36.6990 0001438  90.0718 270.0439 15.08837165 91480,6917.889,95.438,540.749,538.759,0.0
53934.0,STARLINK-4775,PAYLOAD,2024-05-15 21:14:46,15.08828018,0.0001441,53.2195,34.6171,87.3182,272.7975,0.00038228,5.799e-05,0.0,0 STARLINK-4775,1 53934U 22119BA  24136.88525721  .00005799  00000-0  38228-3 0  9999,2 53934  53.2195  34.6171 0001441  87.3182 272.7975 15.08828018 91552,6917.917,95.438,540.779,538.785,0.0
53934.0,STARLINK-4775,PAYLOAD,2024-05-15 22:50:09,15.08829702,0.0001461,53.2195,34.3199,84.0178,276.0981,0.00043092,6.575e-05,0.0,0 STARLINK-4775,1 53934U 22119BA  24136.95149760  .00006575  00000-0  43092-3 0  9990,2 53934  53.2195  34.3199 0001461  84.0178 276.0981 15.08829702 92006,6917.912,95.438,540.788,538.766,0.0
53934.0,STARLINK-4775,PAYLOAD,2024-05-16 09:57:50,15.08863926,0.0001143,53.2172,32.2342,61.5876,298.5231,0.00095882,0.00015015,0.0,0 STARLINK-4775,1 53934U 22119BA  24137.41516613  .00015015  00000-0  95882-3 0  9990,2 53934  53.2172  32.2342 0001143  61.5876 298.5231 15.08863926 91631,6917.807,95.436,540.463,538.882,0.0
53934.0,STARLINK-4775,PAYLOAD,2024-05-16 16:19:23,15.08845499,0.0001677,53.2178,31.0475,82.3998,277.7184,0.0003484,5.262e-05,0.0,0 STARLINK-4775,1 53934U 22119BA  24137.68013159  .00005262  00000-0  34840-3 0  9996,2 53934  53.2178  31.0475 0001677  82.3998 277.7184 15.08845499 91674,6917.864,95.437,540.889,538.568,0.0
53934.0,STARLINK-4775,PAYLOAD,2024-05-17 09:48:36,15.08864395,0.0002078,53.2181,27.7777,78.1973,281.9253,0.00030789,4.619e-05,0.0,0 STARLINK-4775,1 53934U 22119BA  24138.40875988  .00004619  00000-0  30789-3 0  9996,2 53934  53.2181  27.7777 0002078  78.1973 281.9253 15.08864395 92229,6917.806,95.436,541.108,538.233,0.0
53934.0,STARLINK-4775,PAYLOAD,2024-05-17 16:10:10,15.08814147,0.0002561,53.2152,26.5874,84.6641,275.4643,-0.0010327,-0.00016676,0.0,0 STARLINK-4775,1 53934U 22119BA  24138.67372969 -.00016676  00000-0 -10327-2 0  9999,2 53934  53.2152  26.5874 0002561  84.6641 275.4643 15.08814147 91829,6917.959,95.439,541.596,538.053,0.0
53934.0,STARLINK-4775,PAYLOAD,2024-05-17 22:31:43,15.08809781,0.0002382,53.2151,25.3988,85.062,275.0644,-0.000843,-0.00013669,0.0,0 STARLINK-4775,1 53934U 22119BA  24138.93869487 -.00013669  00000-0 -84300-3 0  9996,2 53934  53.2151  25.3988 0002382  85.0620 275.0644 15.08809781 92303,6917.973,95.439,541.486,538.19,0.0
53934.0,STARLINK-4775,PAYLOAD,2024-05-18 09:39:25,15.08840508,0.0001838,53.2165,23.3147,79.6167,280.5032,0.00054482,8.394e-05,0.0,0 STARLINK-4775,1 53934U 22119BA  24139.40237940  .00008394  00000-0  54482-3 0  9997,2 53934  53.2165  23.3147 0001838  79.6167 280.5032 15.08840508 91935,6917.879,95.438,541.015,538.472,0.0
53934.0,STARLINK-4775,PAYLOAD,2024-05-18 20:47:08,15.0883289,0.0002032,53.216,21.2353,83.8149,276.3075,0.00095872,0.00015,0.0,0 STARLINK-4775,1 53934U 22119BA  24139.86606707  .00015000  00000-0  95872-3 0  9998,2 53934  53.2160  21.2353 0002032  83.8149 276.3075 15.08832890 92004,6917.902,95.438,541.173,538.361,0.0
53934.0,STARLINK-4775,PAYLOAD,2024-05-18 22:22:31,15.08842512,0.0001652,53.2162,20.9374,82.9876,277.1304,0.00082851,0.00012923,0.0,0 STARLINK-4775,1 53934U 22119BA  24139.93230338  .00012923  00000-0  82851-3 0  9993,2 53934  53.2162  20.9374 0001652  82.9876 277.1304 15.08842512 92454,6917.873,95.437,540.881,538.595,0.0
53934.0,STARLINK-4775,PAYLOAD,2024-05-19 01:33:17,15.08854309,0.0001557,53.2172,20.3411,86.7957,273.3213,0.0011812,0.00018568,0.0,0 STARLINK-4775,1 53934U 22119BA  24140.06478204  .00018568  00000-0  11812-2 0  9994,2 53934  53.2172  20.3411 0001557  86.7957 273.3213 15.08854309 92035,6917.837,95.437,540.779,538.625,0.0
53934.0,STARLINK-4775,PAYLOAD,2024-05-19 20:37:54,15.08843403,0.000114,53.2156,16.7752,81.2356,278.8765,0.00026804,3.981e-05,0.0,0 STARLINK-4775,1 53934U 22119BA  24140.85966277  .00003981  00000-0  26804-3 0  9994,2 53934  53.2156  16.7752 0001140  81.2356 278.8765 15.08843403 92153,6917.87,95.437,540.524,538.946,0.0
53934.0,STARLINK-4775,PAYLOAD,2024-05-20 01:24:04,15.08836622,0.0001109,53.2172,15.8808,64.2072,295.9034,0.00012876,1.762e-05,0.0,0 STARLINK-4775,1 53934U 22119BA  24141.05838471  .00001762  00000-0  12876-3 0  9990,2 53934  53.2172  15.8808 0001109  64.2072 295.9034 15.08836622 92181,6917.891,95.438,540.523,538.989,0.0
53934.0,STARLINK-4775,PAYLOAD,2024-05-20 20:28:42,15.08832096,0.0001466,53.2168,12.3143,62.9308,297.1834,3.4049e-05,2.54e-06,0.0,0 STARLINK-4775,1 53934U 22119BA  24141.85327314  .00000254  00000-0  34049-4 0  9999,2 53934  53.2168  12.3143 0001466  62.9308 297.1834 15.08832096 92300,6917.905,95.438,540.784,538.755,0.0
53934.0,STARLINK-4775,PAYLOAD,2024-05-20 22:04:05,15.08838699,0.0001409,53.2173,12.0159,74.9651,285.1497,3.6324e-05,2.9e-06,0.0,0 STARLINK-4775,1 53934U 22119BA  24141.91951023  .00000290  00000-0  36324-4 0  9994,2 53934  53.2173  12.0159 0001409  74.9651 285.1497 15.08838699 92757,6917.884,95.438,540.724,538.775,0.0
53934.0,STARLINK-4775,PAYLOAD,2024-05-21 21:54:52,15.08841068,0.0001403,53.2179,7.5537,83.5864,276.5288,0.00028368,4.23e-05,0.0,0 STARLINK-4775,1 53934U 22119BA  24142.91311020  .00004230  00000-0  28368-3 0  9998,2 53934  53.2179   7.5537 0001403  83.5864 276.5288 15.08841068 92901,6917.877,95.437,540.713,538.772,0.0
